{
  "norad_id": 68459,
  "name": "TRANSPORTER-16 OBJECT AV",
  "history": [
    {
      "epoch": "2026-04-14T03:32:43.194624Z",
      "apogee_km": 518.553728750674,
      "perigee_km": 512.7207684834348,
      "latitude_deg": 4.989131843808043e-05,
      "longitude_deg": 168.03840087332884,
      "height_km": 517.4439551955195,
      "semi_major_axis_km": 6893.774248617055,
      "eccentricity": 0.00042306,
      "inclination_deg": 97.448,
      "raan_deg": 63.5467,
      "arg_perigee_deg": 296.0846,
      "mean_anomaly_deg": 63.9952,
      "mean_motion_rev_day": 15.16761079
    }
  ]
}