{"fetched_at":"2026-04-16T06:04:01Z","count":5425,"tles":[{"name":"TRANSPORTER-16 OBJECT AV","line1":"1 68459U 26067AV  26104.14772216  .00003824  00000+0  19822-3 0  9997","line2":"2 68459  97.4480  63.5467 0004230 296.0846  63.9952 15.16761079  2224","category":"Other"}]}